{"fetched_at":"2026-07-14T17:40:23.520Z","source":"https://celestrak.org/NORAD/elements/gp.php?GROUP=oneweb&FORMAT=JSON","constellation":"oneweb","records":[{"OBJECT_NAME":"ONEWEB-0509","OBJECT_ID":"2022-138Q","EPOCH":"2026-07-13T20:31:34.313664","CLASSIFICATION_TYPE":"U","MEAN_MOTION":13.19724241,"ECCENTRICITY":0.0002016,"INCLINATION":87.9194,"RA_OF_ASC_NODE":299.6571,"ARG_OF_PERICENTER":105.2196,"MEAN_ANOMALY":254.916,"EPHEMERIS_TYPE":0,"NORAD_CAT_ID":54127,"ELEMENT_SET_NO":999,"REV_AT_EPOCH":18032,"BSTAR":-0.0000064387,"MEAN_MOTION_DOT":1e-7,"MEAN_MOTION_DDOT":0},{"OBJECT_NAME":"ONEWEB-0510","OBJECT_ID":"2022-138R","EPOCH":"2026-07-13T17:20:36.017376","CLASSIFICATION_TYPE":"U","MEAN_MOTION":13.20770016,"ECCENTRICITY":0.0002002,"INCLINATION":87.9176,"RA_OF_ASC_NODE":269.1507,"ARG_OF_PERICENTER":92.9569,"MEAN_ANOMALY":267.1794,"EPHEMERIS_TYPE":0,"NORAD_CAT_ID":54128,"ELEMENT_SET_NO":999,"REV_AT_EPOCH":18278,"BSTAR":0.000041128,"MEAN_MOTION_DOT":3e-7,"MEAN_MOTION_DDOT":0},{"OBJECT_NAME":"ONEWEB-0511","OBJECT_ID":"2022-138S","EPOCH":"2026-07-13T18:37:50.026080","CLASSIFICATION_TYPE":"U","MEAN_MOTION":13.19723506,"ECCENTRICITY":0.0001725,"INCLINATION":87.9191,"RA_OF_ASC_NODE":299.674,"ARG_OF_PERICENTER":102.964,"MEAN_ANOMALY":257.1685,"EPHEMERIS_TYPE":0,"NORAD_CAT_ID":54129,"ELEMENT_SET_NO":999,"REV_AT_EPOCH":18034,"BSTAR":0.000070769,"MEAN_MOTION_DOT":4.1e-7,"MEAN_MOTION_DDOT":0},{"OBJECT_NAME":"ONEWEB-0512","OBJECT_ID":"2022-138T","EPOCH":"2026-07-14T05:21:31.372128","CLASSIFICATION_TYPE":"U","MEAN_MOTION":13.19727428,"ECCENTRICITY":0.0001879,"INCLINATION":87.9183,"RA_OF_ASC_NODE":299.5884,"ARG_OF_PERICENTER":111.4382,"MEAN_ANOMALY":248.6951,"EPHEMERIS_TYPE":0,"NORAD_CAT_ID":54130,"ELEMENT_SET_NO":999,"REV_AT_EPOCH":18037,"BSTAR":0.00009273,"MEAN_MOTION_DOT":5e-7,"MEAN_MOTION_DDOT":0},{"OBJECT_NAME":"ONEWEB-0513","OBJECT_ID":"2022-138U","EPOCH":"2026-07-14T05:13:36.178176","CLASSIFICATION_TYPE":"U","MEAN_MOTION":13.20269893,"ECCENTRICITY":0.0001491,"INCLINATION":87.9191,"RA_OF_ASC_NODE":299.5304,"ARG_OF_PERICENTER":125.6685,"MEAN_ANOMALY":234.4586,"EPHEMERIS_TYPE":0,"NORAD_CAT_ID":54131,"ELEMENT_SET_NO":999,"REV_AT_EPOCH":18028,"BSTAR":0.00010251,"MEAN_MOTION_DOT":5.4e-7,"MEAN_MOTION_DDOT":0},{"OBJECT_NAME":"ONEWEB-0514","OBJECT_ID":"2022-138V","EPOCH":"2026-07-13T20:38:23.915328","CLASSIFICATION_TYPE":"U","MEAN_MOTION":13.19726127,"ECCENTRICITY":0.0001954,"INCLINATION":87.9189,"RA_OF_ASC_NODE":299.6573,"ARG_OF_PERICENTER":96.6314,"MEAN_ANOMALY":263.5042,"EPHEMERIS_TYPE":0,"NORAD_CAT_ID":54132,"ELEMENT_SET_NO":999,"REV_AT_EPOCH":18034,"BSTAR":0.00016468,"MEAN_MOTION_DOT":7.9e-7,"MEAN_MOTION_DDOT":0},{"OBJECT_NAME":"ONEWEB-0515","OBJECT_ID":"2022-138W","EPOCH":"2026-07-14T03:55:46.278048","CLASSIFICATION_TYPE":"U","MEAN_MOTION":13.20772619,"ECCENTRICITY":0.0002778,"INCLINATION":87.9199,"RA_OF_ASC_NODE":269.0555,"ARG_OF_PERICENTER":87.3938,"MEAN_ANOMALY":272.7513,"EPHEMERIS_TYPE":0,"NORAD_CAT_ID":54133,"ELEMENT_SET_NO":999,"REV_AT_EPOCH":18286,"BSTAR":0.00019303,"MEAN_MOTION_DOT":9.1e-7,"MEAN_MOTION_DDOT":0},{"OBJECT_NAME":"ONEWEB-0516","OBJECT_ID":"2022-138X","EPOCH":"2026-07-13T20:01:59.623968","CLASSIFICATION_TYPE":"U","MEAN_MOTION":13.19723976,"ECCENTRICITY":0.0002127,"INCLINATION":87.9187,"RA_OF_ASC_NODE":299.6655,"ARG_OF_PERICENTER":102.8763,"MEAN_ANOMALY":257.2607,"EPHEMERIS_TYPE":0,"NORAD_CAT_ID":54134,"ELEMENT_SET_NO":999,"REV_AT_EPOCH":18034,"BSTAR":-0.000011781,"MEAN_MOTION_DOT":8e-8,"MEAN_MOTION_DDOT":0},{"OBJECT_NAME":"ONEWEB-0517","OBJECT_ID":"2022-138Y","EPOCH":"2026-07-13T19:32:26.600064","CLASSIFICATION_TYPE":"U","MEAN_MOTION":13.19726045,"ECCENTRICITY":0.0001775,"INCLINATION":87.9203,"RA_OF_ASC_NODE":299.6628,"ARG_OF_PERICENTER":93.8728,"MEAN_ANOMALY":266.2608,"EPHEMERIS_TYPE":0,"NORAD_CAT_ID":54135,"ELEMENT_SET_NO":999,"REV_AT_EPOCH":18034,"BSTAR":0.000041999,"MEAN_MOTION_DOT":3e-7,"MEAN_MOTION_DDOT":0},{"OBJECT_NAME":"ONEWEB-0518","OBJECT_ID":"2022-138Z","EPOCH":"2026-07-13T18:10:33.110688","CLASSIFICATION_TYPE":"U","MEAN_MOTION":13.19723914,"ECCENTRICITY":0.00022,"INCLINATION":87.9184,"RA_OF_ASC_NODE":299.6836,"ARG_OF_PERICENTER":103.7587,"MEAN_ANOMALY":256.379,"EPHEMERIS_TYPE":0,"NORAD_CAT_ID":54136,"ELEMENT_SET_NO":999,"REV_AT_EPOCH":18033,"BSTAR":-0.000015219,"MEAN_MOTION_DOT":7e-8,"MEAN_MOTION_DDOT":0},{"OBJECT_NAME":"ONEWEB-0519","OBJECT_ID":"2022-138AA","EPOCH":"2026-07-13T20:36:06.331968","CLASSIFICATION_TYPE":"U","MEAN_MOTION":13.1972361,"ECCENTRICITY":0.0001811,"INCLINATION":87.9191,"RA_OF_ASC_NODE":299.6565,"ARG_OF_PERICENTER":98.0724,"MEAN_ANOMALY":262.0614,"EPHEMERIS_TYPE":0,"NORAD_CAT_ID":54137,"ELEMENT_SET_NO":999,"REV_AT_EPOCH":18035,"BSTAR":0.00014044,"MEAN_MOTION_DOT":6.9e-7,"MEAN_MOTION_DDOT":0},{"OBJECT_NAME":"ONEWEB-0520","OBJECT_ID":"2022-138AB","EPOCH":"2026-07-13T19:36:59.483232","CLASSIFICATION_TYPE":"U","MEAN_MOTION":13.19726842,"ECCENTRICITY":0.0002046,"INCLINATION":87.9193,"RA_OF_ASC_NODE":299.6654,"ARG_OF_PERICENTER":110.0249,"MEAN_ANOMALY":250.1104,"EPHEMERIS_TYPE":0,"NORAD_CAT_ID":54138,"ELEMENT_SET_NO":999,"REV_AT_EPOCH":18033,"BSTAR":0.000026666,"MEAN_MOTION_DOT":2.4e-7,"MEAN_MOTION_DDOT":0},{"OBJECT_NAME":"ONEWEB-0521","OBJECT_ID":"2022-138AC","EPOCH":"2026-07-14T05:30:36.932832","CLASSIFICATION_TYPE":"U","MEAN_MOTION":13.19727402,"ECCENTRICITY":0.0001814,"INCLINATION":87.9196,"RA_OF_ASC_NODE":299.5721,"ARG_OF_PERICENTER":96.2717,"MEAN_ANOMALY":263.8623,"EPHEMERIS_TYPE":0,"NORAD_CAT_ID":54139,"ELEMENT_SET_NO":999,"REV_AT_EPOCH":18033,"BSTAR":0.00021951,"MEAN_MOTION_DOT":0.00000101,"MEAN_MOTION_DDOT":0},{"OBJECT_NAME":"ONEWEB-0522","OBJECT_ID":"2022-138AD","EPOCH":"2026-07-13T19:55:09.537600","CLASSIFICATION_TYPE":"U","MEAN_MOTION":13.19733985,"ECCENTRICITY":0.0001933,"INCLINATION":87.9208,"RA_OF_ASC_NODE":299.6519,"ARG_OF_PERICENTER":120.8172,"MEAN_ANOMALY":239.3151,"EPHEMERIS_TYPE":0,"NORAD_CAT_ID":54140,"ELEMENT_SET_NO":999,"REV_AT_EPOCH":18032,"BSTAR":-0.0029915,"MEAN_MOTION_DOT":-0.00001185,"MEAN_MOTION_DDOT":0},{"OBJECT_NAME":"ONEWEB-0523","OBJECT_ID":"2022-138AE","EPOCH":"2026-07-14T03:36:21.237120","CLASSIFICATION_TYPE":"U","MEAN_MOTION":13.20772593,"ECCENTRICITY":0.0002352,"INCLINATION":87.9184,"RA_OF_ASC_NODE":269.0689,"ARG_OF_PERICENTER":78.9012,"MEAN_ANOMALY":281.2386,"EPHEMERIS_TYPE":0,"NORAD_CAT_ID":54141,"ELEMENT_SET_NO":999,"REV_AT_EPOCH":18286,"BSTAR":0.000095118,"MEAN_MOTION_DOT":5.2e-7,"MEAN_MOTION_DDOT":0},{"OBJECT_NAME":"ONEWEB-0524","OBJECT_ID":"2022-138AF","EPOCH":"2026-07-14T03:21:48.864096","CLASSIFICATION_TYPE":"U","MEAN_MOTION":13.20772712,"ECCENTRICITY":0.0002925,"INCLINATION":87.9187,"RA_OF_ASC_NODE":269.0672,"ARG_OF_PERICENTER":94.0697,"MEAN_ANOMALY":266.0771,"EPHEMERIS_TYPE":0,"NORAD_CAT_ID":54142,"ELEMENT_SET_NO":999,"REV_AT_EPOCH":18286,"BSTAR":0.000070704,"MEAN_MOTION_DOT":4.2e-7,"MEAN_MOTION_DDOT":0},{"OBJECT_NAME":"ONEWEB-0525","OBJECT_ID":"2022-138AG","EPOCH":"2026-07-13T20:22:27.744672","CLASSIFICATION_TYPE":"U","MEAN_MOTION":13.19723719,"ECCENTRICITY":0.0002174,"INCLINATION":87.9195,"RA_OF_ASC_NODE":299.6571,"ARG_OF_PERICENTER":111.1631,"MEAN_ANOMALY":248.9734,"EPHEMERIS_TYPE":0,"NORAD_CAT_ID":54143,"ELEMENT_SET_NO":999,"REV_AT_EPOCH":18034,"BSTAR":0.0001028,"MEAN_MOTION_DOT":5.4e-7,"MEAN_MOTION_DDOT":0},{"OBJECT_NAME":"ONEWEB-0526","OBJECT_ID":"2022-138AH","EPOCH":"2026-07-14T04:26:56.256576","CLASSIFICATION_TYPE":"U","MEAN_MOTION":13.19724094,"ECCENTRICITY":0.000214,"INCLINATION":87.9193,"RA_OF_ASC_NODE":299.591,"ARG_OF_PERICENTER":103.6189,"MEAN_ANOMALY":256.5183,"EPHEMERIS_TYPE":0,"NORAD_CAT_ID":54144,"ELEMENT_SET_NO":999,"REV_AT_EPOCH":18036,"BSTAR":-0.000039811,"MEAN_MOTION_DOT":-3e-8,"MEAN_MOTION_DDOT":0},{"OBJECT_NAME":"ONEWEB-0529","OBJECT_ID":"2022-138AJ","EPOCH":"2026-07-13T19:25:37.356096","CLASSIFICATION_TYPE":"U","MEAN_MOTION":13.19726003,"ECCENTRICITY":0.0002061,"INCLINATION":87.9187,"RA_OF_ASC_NODE":299.6727,"ARG_OF_PERICENTER":107.6796,"MEAN_ANOMALY":252.4561,"EPHEMERIS_TYPE":0,"NORAD_CAT_ID":54145,"ELEMENT_SET_NO":999,"REV_AT_EPOCH":18033,"BSTAR":-0.000080606,"MEAN_MOTION_DOT":-1.9e-7,"MEAN_MOTION_DDOT":0},{"OBJECT_NAME":"ONEWEB-0531","OBJECT_ID":"2022-138AK","EPOCH":"2026-07-14T04:51:29.934720","CLASSIFICATION_TYPE":"U","MEAN_MOTION":13.20772802,"ECCENTRICITY":0.000258,"INCLINATION":87.9187,"RA_OF_ASC_NODE":269.0518,"ARG_OF_PERICENTER":80.9858,"MEAN_ANOMALY":279.1567,"EPHEMERIS_TYPE":0,"NORAD_CAT_ID":54146,"ELEMENT_SET_NO":999,"REV_AT_EPOCH":18287,"BSTAR":0.00023411,"MEAN_MOTION_DOT":0.00000108,"MEAN_MOTION_DDOT":0},{"OBJECT_NAME":"ONEWEB-0535","OBJECT_ID":"2022-138AL","EPOCH":"2026-07-14T05:19:14.478240","CLASSIFICATION_TYPE":"U","MEAN_MOTION":13.19727296,"ECCENTRICITY":0.0001942,"INCLINATION":87.9186,"RA_OF_ASC_NODE":299.5784,"ARG_OF_PERICENTER":95.1433,"MEAN_ANOMALY":264.9921,"EPHEMERIS_TYPE":0,"NORAD_CAT_ID":54147,"ELEMENT_SET_NO":999,"REV_AT_EPOCH":18040,"BSTAR":0.00013145,"MEAN_MOTION_DOT":6.6e-7,"MEAN_MOTION_DDOT":0},{"OBJECT_NAME":"ONEWEB-0536","OBJECT_ID":"2022-138AM","EPOCH":"2026-07-14T04:32:06.484416","CLASSIFICATION_TYPE":"U","MEAN_MOTION":13.20772585,"ECCENTRICITY":0.0002781,"INCLINATION":87.9178,"RA_OF_ASC_NODE":269.0736,"ARG_OF_PERICENTER":82.8885,"MEAN_ANOMALY":277.2564,"EPHEMERIS_TYPE":0,"NORAD_CAT_ID":54148,"ELEMENT_SET_NO":999,"REV_AT_EPOCH":18286,"BSTAR":-0.00004064,"MEAN_MOTION_DOT":-4e-8,"MEAN_MOTION_DDOT":0},{"OBJECT_NAME":"ONEWEB-0527","OBJECT_ID":"2022-166A","EPOCH":"2026-07-14T04:48:22.476096","CLASSIFICATION_TYPE":"U","MEAN_MOTION":13.21827093,"ECCENTRICITY":0.0002074,"INCLINATION":87.9233,"RA_OF_ASC_NODE":238.6203,"ARG_OF_PERICENTER":97.2314,"MEAN_ANOMALY":262.9055,"EPHEMERIS_TYPE":0,"NORAD_CAT_ID":54642,"ELEMENT_SET_NO":999,"REV_AT_EPOCH":17510,"BSTAR":-0.00022084,"MEAN_MOTION_DOT":-7.8e-7,"MEAN_MOTION_DDOT":0}]}
